[{"OBJECT_NAME":"TEIKYOSAT-4 (OORURI)","OBJECT_ID":"2021-102B","EPOCH":"2026-03-09T16:12:29.535840","MEAN_MOTION":15.09119208,"ECCENTRICITY":0.00103447,"INCLINATION":97.3797,"RA_OF_ASC_NODE":101.9931,"ARG_OF_PERICENTER":276.5421,"MEAN_ANOMALY":83.463,"EPHEMERIS_TYPE":0,"CLASSIFICATION_TYPE":"U","NORAD_CAT_ID":49396,"ELEMENT_SET_NO":999,"REV_AT_EPOCH":23771,"BSTAR":0.00015739844,"MEAN_MOTION_DOT":2.438e-5,"MEAN_MOTION_DDOT":0},{"OBJECT_NAME":"STARLINK-35267","OBJECT_ID":"2025-207A","EPOCH":"2026-03-09T17:32:37.637088","MEAN_MOTION":15.05648385,"ECCENTRICITY":0.00011316,"INCLINATION":97.6033,"RA_OF_ASC_NODE":138.6389,"ARG_OF_PERICENTER":124.6208,"MEAN_ANOMALY":235.5126,"EPHEMERIS_TYPE":0,"CLASSIFICATION_TYPE":"U","NORAD_CAT_ID":65592,"ELEMENT_SET_NO":999,"REV_AT_EPOCH":2825,"BSTAR":0.0003009984,"MEAN_MOTION_DOT":4.285e-5,"MEAN_MOTION_DDOT":0}]
